STARLINK-4339           
1 53054U 22077M   24104.51230559 -.00003526  00000+0 -27030-3 0  9998
2 53054  97.6559 286.2874 0002285  60.9092 299.2361 15.01225702 96619
STARLINK-4338           
1 53055U 22077N   24104.50487243  .00001507  00000+0  12192-3 0  9990
2 53055  97.6548 286.2793 0002584  58.2616 301.8860 15.01256754 96617
STARLINK-4314           
1 53056U 22077P   24104.44191883 -.00000742  00000+0 -53161-4 0  9990
2 53056  97.6554 286.2170 0002933  78.6095 281.5459 15.01262227 96608
STARLINK-4252           
1 53057U 22077Q   24104.50118535  .00002089  00000+0  16723-3 0  9997
2 53057  97.6544 286.2748 0003034  66.5603 293.5940 15.01250528 96613
STARLINK-4317           
1 53058U 22077R   24104.45328407  .00002372  00000+0  18916-3 0  9994
2 53058  97.6569 286.1917 0001907  88.0781 272.0662 15.01262026 96609
STARLINK-4320           
1 53059U 22077S   24104.49772500  .00001029  00000+0  84696-4 0  9993
2 53059  97.6541 286.2702 0002590  74.0033 286.1476 15.01267409 96617
STARLINK-4305           
1 53060U 22077T   24104.50301572 -.00000009  00000+0  39131-5 0  9997
2 53060  97.6548 286.2769 0002659  82.8172 277.3354 15.01263266 96610
STARLINK-4308           
1 53061U 22077U   24104.49560831  .00000488  00000+0  42615-4 0  9991
2 53061  97.6541 286.2674 0001640  64.4569 295.6824 15.01257958 96610
STARLINK-4311           
1 53062U 22077V   24104.49931409  .00003532  00000+0  27933-3 0  9993
2 53062  97.6544 286.2722 0002776  65.2579 294.8934 15.01271761 96610
STARLINK-4307           
1 53063U 22077W   24104.51967554  .00001259  00000+0  10258-3 0  9993
2 53063  97.6567 286.3093 0001409  90.9784 269.1602 15.01262764 96624
STARLINK-4313           
1 53064U 22077X   24104.49745957  .00000938  00000+0  77613-4 0  9994
2 53064  97.6544 286.2700 0002083  46.5027 313.6371 15.01256364 96616
STARLINK-4312           
1 53065U 22077Y   24104.49191002  .00000014  00000+0  56982-5 0  9993
2 53065  97.6537 286.2616 0001183  97.8586 262.2772 15.01257751 96619
STARLINK-4309           
1 53066U 22077Z   24104.49030093  .00000290  00000+0  27155-4 0  9991
2 53066  97.6532 286.2672 0001600  90.2864 269.8544 15.01255976 96614
STARLINK-4306           
1 53067U 22077AA  24104.48820383 -.00000356  00000+0 -23097-4 0  9996
2 53067  97.6527 286.2563 0000768 127.0863 233.0432 15.01259792 96619
STARLINK-4325           
1 53068U 22077AB  24104.49375944  .00000444  00000+0  39146-4 0  9994
2 53068  97.6539 286.2569 0002201  88.5509 271.5967 15.01261040 96610
STARLINK-4323           
1 53069U 22077AC  24104.48449788 -.00000028  00000+0  24230-5 0  9990
2 53069  97.6539 286.2463 0000491 130.7781 229.3486 15.01260571 96610
STARLINK-4342           
1 53070U 22077AD  24104.49005546  .00000269  00000+0  25517-4 0  9997
2 53070  97.6532 286.2591 0001413  91.7542 268.3844 15.01257866 96617
STARLINK-4328           
1 53071U 22077AE  24104.48264474  .00000235  00000+0  22894-4 0  9992
2 53071  97.6543 286.2417 0000591 179.7782 180.3443 15.01261093 96611
STARLINK-4344           
1 53072U 22077AF  24104.47894148 -.00000410  00000+0 -27311-4 0  9995
2 53072  97.6546 286.2531 0001352 195.5691 164.5491 15.01266929 96613
STARLINK-4346           
1 53073U 22077AG  24104.48290363 -.00000968  00000+0 -70820-4 0  9997
2 53073  97.6546 286.2323 0000514 133.4823 226.6444 15.01250358 96617
STARLINK-4310           
1 53074U 22077AH  24104.48635104 -.00000631  00000+0 -44567-4 0  9990
2 53074  97.6531 286.2444 0000691 121.4142 238.7149 15.01262576 96614
STARLINK-4348           
1 53075U 22077AJ  24104.48079695  .00000069  00000+0  99895-5 0  9996
2 53075  97.6543 286.2268 0001080 193.0301 167.0896 15.01259013 96612
STARLINK-4347           
1 53076U 22077AK  24104.47918470  .00000164  00000+0  17385-4 0  9998
2 53076  97.6545 286.2406 0001999 202.3049 157.8088 15.01261647 96617
STARLINK-4315           
1 53077U 22077AL  24104.47338528  .00000831  00000+0  69322-4 0  9998
2 53077  97.6549 286.2304 0003824 196.3860 163.7241 15.01262725 96616
STARLINK-4322           
1 53078U 22077AM  24104.47708809  .00000429  00000+0  38002-4 0  9996
2 53078  97.6546 286.2344 0002676 209.4947 150.6127 15.01263193 96612
STARLINK-4327           
1 53079U 22077AN  24104.47154611  .00001938  00000+0  15545-3 0  9995
2 53079  97.6554 286.2301 0003153 196.7412 163.3709 15.01263795 96616
STARLINK-4330           
1 53080U 22077AP  24104.47523813 -.00000097  00000+0 -29479-5 0  9991
2 53080  97.6547 286.2322 0003147 218.1099 141.9903 15.01258368 96614
STARLINK-4326           
1 53081U 22077AQ  24104.47548428  .00000284  00000+0  26682-4 0  9999
2 53081  97.6547 286.2156 0002476 200.7188 159.3936 15.01261411 96612
STARLINK-4321           
1 53082U 22077AR  24104.46968534  .00000422  00000+0  37493-4 0  9999
2 53082  97.6553 286.2268 0003659 182.9356 177.1848 15.01262485 96618
STARLINK-4251           
1 53083U 22077AS  24104.45673254  .00000885  00000+0  73499-4 0  9990
2 53083  97.6573 286.2279 0001728  92.1212 268.0210 15.01258988 96617
STARLINK-4319           
1 53084U 22077AT  24104.46783450  .00000714  00000+0  60158-4 0  9991
2 53084  97.6556 286.2251 0003545 172.4735 187.6543 15.01262011 96617
STARLINK-4324           
1 53085U 22077AU  24104.46252674  .00000760  00000+0  63753-4 0  9996
2 53085  97.6580 286.2282 0003306 145.9835 214.1602 15.01262433 96610
STARLINK-4318           
1 53086U 22077AV  24104.46598583  .00000747  00000+0  62721-4 0  9998
2 53086  97.6560 286.2241 0003388 167.9221 192.2085 15.01259863 96611
STARLINK-4329           
1 53087U 22077AW  24104.46412308 -.00004545  00000+0 -34928-3 0  9998
2 53087  97.6565 286.2161 0003362 141.8594 218.2869 15.01278997 96612
STARLINK-4333           
1 53088U 22077AX  24104.46228193  .00000923  00000+0  76418-4 0  9991
2 53088  97.6582 286.2247 0003186 144.1957 215.9481 15.01262525 96614
STARLINK-4063           
1 53132U 22083A   24104.27903133  .00001015  00000+0  81872-4 0  9994
2 53132  53.2195  55.9410 0001452 103.6696 256.4458 15.08844539 96239
STARLINK-4154           
1 53133U 22083B   24104.23856439  .00000805  00000+0  68688-4 0  9993
2 53133  53.2180  56.1950 0001375  92.4554 267.6595 15.08837879 96211
STARLINK-4150           
1 53134U 22083C   24104.08767221  .00000291  00000+0  36341-4 0  9997
2 53134  53.2180  56.7959 0001400 100.7355 259.3795 15.08842167 96203
STARLINK-4023           
1 53135U 22083D   24104.16127187  .00001187  00000+0  92684-4 0  9995
2 53135  53.2193  56.4672 0001506 100.0904 260.0258 15.08841724 97209
STARLINK-4152           
1 53136U 22083E   24104.15759471  .00000273  00000+0  35230-4 0  9991
2 53136  53.2184  56.4780 0001418 100.1264 259.9888 15.08839020 97204
STARLINK-4145           
1 53137U 22083F   24104.28270877  .00001667  00000+0  12281-3 0  9992
2 53137  53.2180  55.9211 0001386  99.0341 261.0808 15.08845326 96234
STARLINK-4141           
1 53138U 22083G   24104.28135270 -.00000795  00000+0 -31857-4 0  9994
2 53138  53.2186  51.1092 0001234  96.6541 263.4592 15.08843156 97071
STARLINK-4185           
1 53139U 22083H   24104.13919498  .00001405  00000+0  10637-3 0  9990
2 53139  53.2189  56.5658 0001485  99.7951 260.3209 15.08841114 96217
STARLINK-4170           
1 53140U 22083J   24104.27535538  .00001670  00000+0  12297-3 0  9994
2 53140  53.2186  55.9541 0001496  95.5655 264.5508 15.08840072 96239
STARLINK-4103           
1 53141U 22083K   24104.25695499  .00005952  00000+0  39164-3 0  9995
2 53141  53.2178  56.0380 0001463  86.6364 273.4795 15.08851194 96230
STARLINK-4101           
1 53142U 22083L   24104.26799154  .00000039  00000+0  20553-4 0  9994
2 53142  53.2179  55.9868 0001350  97.7079 262.4066 15.08845354 96243
STARLINK-4102           
1 53143U 22083M   24104.25327291  .00001465  00000+0  11012-3 0  9996
2 53143  53.2181  56.0532 0001377  91.0046 269.1104 15.08844604 96230
STARLINK-4100           
1 53144U 22083N   24104.26430589 -.00002894  00000+0 -16387-3 0  9992
2 53144  53.2165  56.0138 0001243  96.4130 263.7004 15.08832878 96239
STARLINK-4106           
1 53145U 22083P   24104.24591687  .00001075  00000+0  85643-4 0  9998
2 53145  53.2184  56.0864 0001301  94.2381 265.8760 15.08837996 96234
STARLINK-4099           
1 53146U 22083Q   24104.26063060  .00001495  00000+0  11197-3 0  9998
2 53146  53.2181  56.0206 0001399  89.4423 270.6729 15.08845168 96231
STARLINK-4094           
1 53147U 22083R   24104.24223317  .00001969  00000+0  14176-3 0  9996
2 53147  53.2187  56.1043 0001426  92.0576 268.0580 15.08843404 96886
STARLINK-4066           
1 53148U 22083S   24104.91667824 -.00014879  00000+0 -11815-3 0  9999
2 53148  53.2144 340.5915 0000688  85.9037 250.2222 15.69717436  6070
STARLINK-4021           
1 53149U 22083T   24104.20364971  .00001514  00000+0  11318-3 0  9997
2 53149  53.2184  46.4801 0001143  93.3112 266.8011 15.08851738 96362
STARLINK-4038           
1 53150U 22083U   24104.22475263  .00001776  00000+0  12960-3 0  9992
2 53150  53.2200  46.1824 0001636  95.2731 264.8448 15.08847762 96364
STARLINK-4040           
1 53151U 22083V   24104.21371334 -.00000073  00000+0  13512-4 0  9991
2 53151  53.2185  46.2304 0001413  88.3036 271.8118 15.08841110 96368
STARLINK-4045           
1 53152U 22083W   24104.22107347  .00002393  00000+0  16834-3 0  9999
2 53152  53.2188  46.1990 0001503  98.7206 261.3956 15.08845795 96363
STARLINK-4098           
1 53153U 22083X   24104.21003231  .00000568  00000+0  53759-4 0  9996
2 53153  53.2184  46.2478 0001242  98.6113 261.5019 15.08845906 96364
STARLINK-4077           
1 53154U 22083Y   24104.21737969  .00004180  00000+0  28044-3 0  9991
2 53154  53.2192  46.2144 0001309  98.0367 262.0773 15.08857745 96360
STARLINK-4088           
1 53155U 22083Z   24104.13643785 -.00000511  00000+0 -14014-4 0  9994
2 53155  53.2187  46.5791 0001283  91.1417 268.9722 15.08833868 96995
